0 FENGYUN 1C DEB
1 30467U 99025AGE 13281.51571954  .00001158  00000-0  70931-3 0  7757
2 30467 099.0817 291.9633 0074602 075.0065 051.1664 14.06458677344889
0 FENGYUN 1C DEB
1 30467U 99025AGE 13282.86613576  .00001252  00000-0  76476-3 0  7769
2 30467 099.0817 293.3184 0074505 071.2854 048.6348 14.06463925345076
0 FENGYUN 1C DEB
1 30467U 99025AGE 13283.99110731  .00001481  00000-0  89980-3 0  7778
2 30467 099.0816 294.4473 0074471 068.1754 344.6476 14.06466322345237
0 FENGYUN 1C DEB
1 30467U 99025AGE 13285.27370609  .00001304  00000-0  79545-3 0  7784
2 30467 099.0815 295.7342 0074419 064.6425 358.7674 14.06470330345413
0 FENGYUN 1C DEB
1 30467U 99025AGE 13286.63623312  .00001378  00000-0  83905-3 0  7794
2 30467 099.0812 297.1016 0074403 060.8734 057.6187 14.06474386345608
0 FENGYUN 1C DEB
1 30467U 99025AGE 13287.97638519  .00001663  00000-0  10067-2 0  7804
2 30467 099.0811 298.4463 0074411 057.1801 003.1829 14.06481013345794
0 FENGYUN 1C DEB
1 30467U 99025AGE 13289.62514589  .00001277  00000-0  77953-3 0  7818
2 30467 099.0810 300.1005 0074361 052.6291 071.3661 14.06487496346022
0 FENGYUN 1C DEB
1 30467U 99025AGE 13290.96356231  .00001219  00000-0  74531-3 0  7821
2 30467 099.0811 301.4433 0074332 048.9276 008.2184 14.06490907346212
0 FENGYUN 1C DEB
1 30467U 99025AGE 13292.47904683  .00001229  00000-0  75132-3 0  7839
2 30467 099.0811 302.9637 0074250 044.7374 121.6477 14.06495002346425
0 FENGYUN 1C DEB
1 30467U 99025AGE 13293.53756625  .00001303  00000-0  79447-3 0  7845
2 30467 099.0810 304.0258 0074197 041.7914 081.3349 14.06497730346579
0 FENGYUN 1C DEB
1 30467U 99025AGE 13294.60335238  .00001433  00000-0  87123-3 0  7852
2 30467 099.0809 305.0950 0074167 038.8109 077.8417 14.06500417346727
